<?xml version="1.0" encoding="UTF-8"?><gpx version="1.1" creator="Псё" xmlns="http://www.topografix.com/GPX/1/1"><metadata><name>Маршрут прогулки</name></metadata><wpt lat="55.74" lon="37.61"><name>Площадка у пруда</name></wpt><wpt lat="55.735" lon="37.595"><name>Сад у набережной</name></wpt><wpt lat="55.73982" lon="37.59436"><name>Остановка 3</name></wpt><trk><name>Маршрут прогулки</name><trkseg><trkpt lat="55.74" lon="37.61"/><trkpt lat="55.735" lon="37.6025"/><trkpt lat="55.735" lon="37.595"/><trkpt lat="55.73982" lon="37.59468"/><trkpt lat="55.73982" lon="37.59436"/></trkseg></trk></gpx>