<?xml version="1.0" encoding="UTF-8"?><gpx version="1.1" creator="Псё" xmlns="http://www.topografix.com/GPX/1/1"><metadata><name>Маршрут прогулки</name></metadata><wpt lat="55.745" lon="37.604"><name>Тестовый парк</name></wpt><wpt lat="55.75884" lon="37.60483"><name>Остановка 2</name></wpt><wpt lat="55.745" lon="37.604"><name>Возврат к началу</name></wpt><trk><name>Маршрут прогулки</name><trkseg><trkpt lat="55.745" lon="37.604"/><trkpt lat="55.75884" lon="37.604415"/><trkpt lat="55.75884" lon="37.60483"/><trkpt lat="55.745" lon="37.604415"/><trkpt lat="55.745" lon="37.604"/></trkseg></trk></gpx>